ONEWEB-0415             
1 51624U 22012C   26001.55034814  .00000688  00000+0  19354-2 0  9999
2 51624  87.8789  69.4871 0001406 103.6541 256.4743 13.10376003187464
ONEWEB-0416             
1 51625U 22012D   26001.56196449  .00000600  00000+0  16823-2 0  9996
2 51625  87.8787  69.5061 0001492 117.8274 242.3005 13.10372222187509
ONEWEB-0422             
1 51626U 22012E   26001.62345502  .00000068  00000+0  14297-3 0  9992
2 51626  87.9099  38.9607 0001819  74.5408 285.5925 13.17650150191875
ONEWEB-0423             
1 51627U 22012F   26001.61670911  .00000155  00000+0  36510-3 0  9996
2 51627  87.9097  38.9715 0001824  90.7702 269.3639 13.17649350191767
ONEWEB-0425             
1 51628U 22012G   26001.57192408 -.00001672  00000+0 -48261-2 0  9994
2 51628  87.8796  69.4766 0002243 105.9035 254.2340 13.10380836187505
ONEWEB-0428             
1 51629U 22012H   26001.55200574  .00000852  00000+0  24053-2 0  9997
2 51629  87.8790  69.4978 0001730 100.8456 259.2867 13.10376004187462
ONEWEB-0431             
1 51630U 22012J   26001.59831557 -.00000561  00000+0 -16433-2 0  9996
2 51630  87.8800  69.4702 0001087  98.2734 261.8517 13.10372897187529
ONEWEB-0434             
1 51631U 22012K   26001.19358335 -.00000041  00000+0 -15241-3 0  9991
2 51631  87.8783  69.5850 0002374 108.7221 251.4164 13.10370359187459
